YAOGAN-36 04C           
1 54750U 22171E   26068.78871400  .00016196  00000+0  54592-3 0  9991
2 54750  34.9797  96.6578 0006685 275.3761  84.6192 15.29852307180246
STARLINK-30804          
1 58155U 23166F   26068.73864388 -.00002446  00000+0 -70546-4 0  9994
2 58155  53.1611 219.6057 0001155  81.1570 278.9562 15.30175871133180
